STARLINK-35452          
1 66104U 25236U   25316.83336806 -.01988154  00000+0 -30426-1 0  9992
2 66104  53.1591 288.7819 0001021  94.1448 262.2474 15.57341825  5069
STARLINK-35561          
1 66105U 25236V   25316.83336806 -.01995226  00000+0 -30543-1 0  9991
2 66105  53.1589 288.7741 0001120  93.3741 266.8478 15.57347389  5018
STARLINK-35584          
1 66106U 25236W   25316.83336806 -.01988784  00000+0 -30437-1 0  9995
2 66106  53.1588 288.7692 0001145  96.8905 265.2522 15.57341314  5060
STARLINK-35593          
1 66107U 25236X   25316.83336806 -.01983416  00000+0 -30348-1 0  9994
2 66107  53.1589 288.7655 0001019 102.9098 261.1509 15.57337846  5068
STARLINK-35590          
1 66108U 25236Y   25316.83336806 -.01995274  00000+0 -30546-1 0  9990
2 66108  53.1587 288.7570 0001105  90.8591 277.0349 15.57344993  5016
STARLINK-35545          
1 66109U 25236Z   25316.83336806 -.01987547  00000+0 -30414-1 0  9999
2 66109  53.1587 288.7613 0001071  94.1063 271.8672 15.57342639  5069
STARLINK-35427          
1 66110U 25236AA  25316.83336806 -.01984877  00000+0 -30372-1 0  9997
2 66110  53.1589 288.7526 0001042  85.9763 283.8347 15.57339179  5066
STARLINK-35574          
1 66111U 25236AB  25316.83336806 -.01978955  00000+0 -30274-1 0  9999
2 66111  53.1590 288.7491 0000986  94.9360 276.7949 15.57334924  5016
STARLINK-35531          
1 66112U 25236AC  25316.83336806 -.01987718  00000+0 -30418-1 0  9997
2 66112  53.1585 288.7408 0001023  91.5292 284.0302 15.57342224  5061
STARLINK-35491          
1 66113U 25236AD  25316.83336806 -.01979696  00000+0 -30285-1 0  9996
2 66113  53.1588 288.7448 0000993  95.8209 277.8253 15.57336305  5067
STARLINK-35496          
1 66114U 25237A   25316.83336806 -.01198740  00000+0 -22957-1 0  9998
2 66114  53.1592 228.7535 0001079 110.2000 115.7925 15.50148484  4675
STARLINK-35428          
1 66115U 25237B   25316.83336806 -.01196441  00000+0 -22909-1 0  9992
2 66115  53.1593 228.7497 0001059 107.6536 120.2546 15.50147726  4674
