CCSDS_OMM_VERS = 2.0
CREATION_DATE  = 
ORIGINATOR     = 

OBJECT_NAME    = STARLINK-35452
OBJECT_ID      = 2025-236U
CENTER_NAME    = EARTH
REF_FRAME      = TEME
TIME_SYSTEM    = UTC
MEAN_ELEMENT_THEORY = SGP/SGP4

EPOCH          = 2025-11-12T20:00:03.000384
MEAN_MOTION    = 15.57341825
ECCENTRICITY   = .0001021
INCLINATION    = 53.1591
RA_OF_ASC_NODE = 288.7819
ARG_OF_PERICENTER = 94.1448
MEAN_ANOMALY   = 262.2474

EPHEMERIS_TYPE = 0
CLASSIFICATION_TYPE = U
NORAD_CAT_ID   = 66104
ELEMENT_SET_NO = 999
REV_AT_EPOCH   = 506
BSTAR          = -.30426E-1
MEAN_MOTION_DOT = -.1988154E-1
MEAN_MOTION_DDOT = 0

CCSDS_OMM_VERS = 2.0
CREATION_DATE  = 
ORIGINATOR     = 

OBJECT_NAME    = STARLINK-35561
OBJECT_ID      = 2025-236V
CENTER_NAME    = EARTH
REF_FRAME      = TEME
TIME_SYSTEM    = UTC
MEAN_ELEMENT_THEORY = SGP/SGP4

EPOCH          = 2025-11-12T20:00:03.000384
MEAN_MOTION    = 15.57347389
ECCENTRICITY   = .000112
INCLINATION    = 53.1589
RA_OF_ASC_NODE = 288.7741
ARG_OF_PERICENTER = 93.3741
MEAN_ANOMALY   = 266.8478

EPHEMERIS_TYPE = 0
CLASSIFICATION_TYPE = U
NORAD_CAT_ID   = 66105
ELEMENT_SET_NO = 999
REV_AT_EPOCH   = 501
BSTAR          = -.30543E-1
MEAN_MOTION_DOT = -.1995226E-1
MEAN_MOTION_DDOT = 0

CCSDS_OMM_VERS = 2.0
CREATION_DATE  = 
ORIGINATOR     = 

OBJECT_NAME    = STARLINK-35584
OBJECT_ID      = 2025-236W
CENTER_NAME    = EARTH
REF_FRAME      = TEME
TIME_SYSTEM    = UTC
MEAN_ELEMENT_THEORY = SGP/SGP4

EPOCH          = 2025-11-12T20:00:03.000384
MEAN_MOTION    = 15.57341314
ECCENTRICITY   = .0001145
INCLINATION    = 53.1588
RA_OF_ASC_NODE = 288.7692
ARG_OF_PERICENTER = 96.8905
MEAN_ANOMALY   = 265.2522

EPHEMERIS_TYPE = 0
CLASSIFICATION_TYPE = U
NORAD_CAT_ID   = 66106
ELEMENT_SET_NO = 999
REV_AT_EPOCH   = 506
BSTAR          = -.30437E-1
MEAN_MOTION_DOT = -.1988784E-1
MEAN_MOTION_DDOT = 0

CCSDS_OMM_VERS = 2.0
CREATION_DATE  = 
ORIGINATOR     = 

OBJECT_NAME    = STARLINK-35593
OBJECT_ID      = 2025-236X
CENTER_NAME    = EARTH
REF_FRAME      = TEME
TIME_SYSTEM    = UTC
MEAN_ELEMENT_THEORY = SGP/SGP4

EPOCH          = 2025-11-12T20:00:03.000384
MEAN_MOTION    = 15.57337846
ECCENTRICITY   = .0001019
INCLINATION    = 53.1589
RA_OF_ASC_NODE = 288.7655
ARG_OF_PERICENTER = 102.9098
MEAN_ANOMALY   = 261.1509

EPHEMERIS_TYPE = 0
CLASSIFICATION_TYPE = U
NORAD_CAT_ID   = 66107
ELEMENT_SET_NO = 999
REV_AT_EPOCH   = 506
BSTAR          = -.30348E-1
MEAN_MOTION_DOT = -.1983416E-1
MEAN_MOTION_DDOT = 0

CCSDS_OMM_VERS = 2.0
CREATION_DATE  = 
ORIGINATOR     = 

OBJECT_NAME    = STARLINK-35590
OBJECT_ID      = 2025-236Y
CENTER_NAME    = EARTH
REF_FRAME      = TEME
TIME_SYSTEM    = UTC
MEAN_ELEMENT_THEORY = SGP/SGP4

EPOCH          = 2025-11-12T20:00:03.000384
MEAN_MOTION    = 15.57344993
ECCENTRICITY   = .0001105
INCLINATION    = 53.1587
RA_OF_ASC_NODE = 288.7570
ARG_OF_PERICENTER = 90.8591
MEAN_ANOMALY   = 277.0349

EPHEMERIS_TYPE = 0
CLASSIFICATION_TYPE = U
NORAD_CAT_ID   = 66108
ELEMENT_SET_NO = 999
REV_AT_EPOCH   = 501
BSTAR          = -.30546E-1
MEAN_MOTION_DOT = -.1995274E-1
MEAN_MOTION_DDOT = 0

CCSDS_OMM_VERS = 2.0
CREATION_DATE  = 
ORIGINATOR     = 

OBJECT_NAME    = STARLINK-35545
OBJECT_ID      = 2025-236Z
CENTER_NAME    = EARTH
REF_FRAME      = TEME
TIME_SYSTEM    = UTC
MEAN_ELEMENT_THEORY = SGP/SGP4

EPOCH          = 2025-11-12T20:00:03.000384
MEAN_MOTION    = 15.57342639
ECCENTRICITY   = .0001071
INCLINATION    = 53.1587
RA_OF_ASC_NODE = 288.7613
ARG_OF_PERICENTER = 94.1063
MEAN_ANOMALY   = 271.8672

EPHEMERIS_TYPE = 0
CLASSIFICATION_TYPE = U
NORAD_CAT_ID   = 66109
ELEMENT_SET_NO = 999
REV_AT_EPOCH   = 506
BSTAR          = -.30414E-1
MEAN_MOTION_DOT = -.1987547E-1
MEAN_MOTION_DDOT = 0

CCSDS_OMM_VERS = 2.0
CREATION_DATE  = 
ORIGINATOR     = 

OBJECT_NAME    = STARLINK-35427
OBJECT_ID      = 2025-236AA
CENTER_NAME    = EARTH
REF_FRAME      = TEME
TIME_SYSTEM    = UTC
MEAN_ELEMENT_THEORY = SGP/SGP4

EPOCH          = 2025-11-12T20:00:03.000384
MEAN_MOTION    = 15.57339179
ECCENTRICITY   = .0001042
INCLINATION    = 53.1589
RA_OF_ASC_NODE = 288.7526
ARG_OF_PERICENTER = 85.9763
MEAN_ANOMALY   = 283.8347

EPHEMERIS_TYPE = 0
CLASSIFICATION_TYPE = U
NORAD_CAT_ID   = 66110
ELEMENT_SET_NO = 999
REV_AT_EPOCH   = 506
BSTAR          = -.30372E-1
MEAN_MOTION_DOT = -.1984877E-1
MEAN_MOTION_DDOT = 0

CCSDS_OMM_VERS = 2.0
CREATION_DATE  = 
ORIGINATOR     = 

OBJECT_NAME    = STARLINK-35574
OBJECT_ID      = 2025-236AB
CENTER_NAME    = EARTH
REF_FRAME      = TEME
TIME_SYSTEM    = UTC
MEAN_ELEMENT_THEORY = SGP/SGP4

EPOCH          = 2025-11-12T20:00:03.000384
MEAN_MOTION    = 15.57334924
ECCENTRICITY   = .0000986
INCLINATION    = 53.1590
RA_OF_ASC_NODE = 288.7491
ARG_OF_PERICENTER = 94.9360
MEAN_ANOMALY   = 276.7949

EPHEMERIS_TYPE = 0
CLASSIFICATION_TYPE = U
NORAD_CAT_ID   = 66111
ELEMENT_SET_NO = 999
REV_AT_EPOCH   = 501
BSTAR          = -.30274E-1
MEAN_MOTION_DOT = -.1978955E-1
MEAN_MOTION_DDOT = 0

CCSDS_OMM_VERS = 2.0
CREATION_DATE  = 
ORIGINATOR     = 

OBJECT_NAME    = STARLINK-35531
OBJECT_ID      = 2025-236AC
CENTER_NAME    = EARTH
REF_FRAME      = TEME
TIME_SYSTEM    = UTC
MEAN_ELEMENT_THEORY = SGP/SGP4

EPOCH          = 2025-11-12T20:00:03.000384
MEAN_MOTION    = 15.57342224
ECCENTRICITY   = .0001023
INCLINATION    = 53.1585
RA_OF_ASC_NODE = 288.7408
ARG_OF_PERICENTER = 91.5292
MEAN_ANOMALY   = 284.0302

EPHEMERIS_TYPE = 0
CLASSIFICATION_TYPE = U
NORAD_CAT_ID   = 66112
ELEMENT_SET_NO = 999
REV_AT_EPOCH   = 506
BSTAR          = -.30418E-1
MEAN_MOTION_DOT = -.1987718E-1
MEAN_MOTION_DDOT = 0

CCSDS_OMM_VERS = 2.0
CREATION_DATE  = 
ORIGINATOR     = 

OBJECT_NAME    = STARLINK-35491
OBJECT_ID      = 2025-236AD
CENTER_NAME    = EARTH
REF_FRAME      = TEME
TIME_SYSTEM    = UTC
MEAN_ELEMENT_THEORY = SGP/SGP4

EPOCH          = 2025-11-12T20:00:03.000384
MEAN_MOTION    = 15.57336305
ECCENTRICITY   = .0000993
INCLINATION    = 53.1588
RA_OF_ASC_NODE = 288.7448
ARG_OF_PERICENTER = 95.8209
MEAN_ANOMALY   = 277.8253

EPHEMERIS_TYPE = 0
CLASSIFICATION_TYPE = U
NORAD_CAT_ID   = 66113
ELEMENT_SET_NO = 999
REV_AT_EPOCH   = 506
BSTAR          = -.30285E-1
MEAN_MOTION_DOT = -.1979696E-1
MEAN_MOTION_DDOT = 0

CCSDS_OMM_VERS = 2.0
CREATION_DATE  = 
ORIGINATOR     = 

OBJECT_NAME    = STARLINK-35496
OBJECT_ID      = 2025-237A
CENTER_NAME    = EARTH
REF_FRAME      = TEME
TIME_SYSTEM    = UTC
MEAN_ELEMENT_THEORY = SGP/SGP4

EPOCH          = 2025-11-12T20:00:03.000384
MEAN_MOTION    = 15.50148484
ECCENTRICITY   = .0001079
INCLINATION    = 53.1592
RA_OF_ASC_NODE = 228.7535
ARG_OF_PERICENTER = 110.2000
MEAN_ANOMALY   = 115.7925

EPHEMERIS_TYPE = 0
CLASSIFICATION_TYPE = U
NORAD_CAT_ID   = 66114
ELEMENT_SET_NO = 999
REV_AT_EPOCH   = 467
BSTAR          = -.22957E-1
MEAN_MOTION_DOT = -.119874E-1
MEAN_MOTION_DDOT = 0

CCSDS_OMM_VERS = 2.0
CREATION_DATE  = 
ORIGINATOR     = 

OBJECT_NAME    = STARLINK-35428
OBJECT_ID      = 2025-237B
CENTER_NAME    = EARTH
REF_FRAME      = TEME
TIME_SYSTEM    = UTC
MEAN_ELEMENT_THEORY = SGP/SGP4

EPOCH          = 2025-11-12T20:00:03.000384
MEAN_MOTION    = 15.50147726
ECCENTRICITY   = .0001059
INCLINATION    = 53.1593
RA_OF_ASC_NODE = 228.7497
ARG_OF_PERICENTER = 107.6536
MEAN_ANOMALY   = 120.2546

EPHEMERIS_TYPE = 0
CLASSIFICATION_TYPE = U
NORAD_CAT_ID   = 66115
ELEMENT_SET_NO = 999
REV_AT_EPOCH   = 467
BSTAR          = -.22909E-1
MEAN_MOTION_DOT = -.1196441E-1
MEAN_MOTION_DDOT = 0

